[{"OBJECT_ID":"2000-054A","OBJECT_NAME":"ASTRA 2B","NORAD_CAT_ID":"26494","OBJECT_TYPE":"PAYLOAD","PERIOD":"1436.132","INCLINATION":"1.6058","APOGEE":"35809.118","PERIGEE":"35765.460","ECCENTRICITY":"0.0005177","MEAN_MOTION":"1.00269316","TLE_LINE1":"1 26494U 00054A   16238.78927867 +.00000124 +00000-0 +00000-0 0  9995","TLE_LINE2":"2 26494 001.6058 079.9178 0005177 038.7572 178.9249 01.00269316010964","LAUNCH_DATE":"2000-09-14","LAUNCH_SITE":"FRENCH GUIANA","OWNER":"SOCIÉTÉ EUROPÉENNE DES SATELLITES","ORBIT_TYPE":"Geosynchronous","OPERATIONAL_STATUS":"Operational","satInfo":{"lng":96.73232945476452,"lat":0.7679171421080057,"elevation":-7.8262135298030095,"azimuth":218.26767054523546,"range":42541.33057048482,"height":35770.73027446182,"velocity":3.0752248866751075},"x":254,"y":29,"dx":-0.360512059037496,"dy":3.054020163475427,"maxAlt":256,"minAlt":256},{"OBJECT_ID":"2000-054B","OBJECT_NAME":"AMC-7 (GE-7)","NORAD_CAT_ID":"26495","OBJECT_TYPE":"PAYLOAD","PERIOD":"1436.105","INCLINATION":"0.0028","APOGEE":"35792.832","PERIGEE":"35780.714","ECCENTRICITY":"0.0001437","MEAN_MOTION":"1.00271156","TLE_LINE1":"1 26495U 00054B   16238.44662912  .00000061  00000-0  00000+0 0  9995","TLE_LINE2":"2 26495   0.0028  93.5608 0001437 113.0378 153.3940  1.00271156 58334","LAUNCH_DATE":"2000-09-14","LAUNCH_SITE":"FRENCH GUIANA","OWNER":"SOCIÉTÉ EUROPÉENNE DES SATELLITES","ORBIT_TYPE":"Geosynchronous","OPERATIONAL_STATUS":"Operational","satInfo":{"lng":-117.18191766402617,"lat":-2.003577789753544,"elevation":-10.527827848341666,"azimuth":72.18191766402616,"range":42851.17728197872,"height":35777.441560862506,"velocity":3.0748246824117174},"x":-231,"y":116,"dx":-1.4046328258439957,"dy":-2.7352428506678943,"maxAlt":256,"minAlt":256},{"OBJECT_ID":"2000-060A","OBJECT_NAME":"NSAT 110","NORAD_CAT_ID":"26559","OBJECT_TYPE":"PAYLOAD","PERIOD":"1436.018","INCLINATION":"0.0413","APOGEE":"35787.181","PERIGEE":"35782.948","ECCENTRICITY":"5.02e-05","MEAN_MOTION":"1.00277249","TLE_LINE1":"1 26559U 00060A   16239.41875215 -.00000380  00000-0  00000+0 0  9998","TLE_LINE2":"2 26559   0.0413 288.1903 0000502  63.0790 244.6471  1.00277249 58193","LAUNCH_DATE":"2000-10-06","LAUNCH_SITE":"FRENCH GUIANA","OWNER":"JAPAN","ORBIT_TYPE":"Geosynchronous","OPERATIONAL_STATUS":"Operational","satInfo":{"lng":52.322479397102285,"lat":-2.1990548144141853,"elevation":-10.712430118986493,"azimuth":262.6775206028977,"range":42899.156783732346,"height":35804.42841785866,"velocity":3.073961618712085},"x":203,"y":-159,"dx":1.8788562611852877,"dy":2.43292810890907,"maxAlt":256,"minAlt":256},{"OBJECT_ID":"2000-067A","OBJECT_NAME":"AMC-6 (GE-6)","NORAD_CAT_ID":"26580","OBJECT_TYPE":"PAYLOAD","PERIOD":"1436.123","INCLINATION":"0.0479","APOGEE":"35799.084","PERIGEE":"35775.168","ECCENTRICITY":"0.0002836","MEAN_MOTION":"1.00269895","TLE_LINE1":"1 26580U 00067A   16239.27101584 -.00000287  00000-0  00000+0 0  9990","TLE_LINE2":"2 26580   0.0479 295.8019 0002836 240.9369 183.7494  1.00269895 58075","LAUNCH_DATE":"2000-10-21","LAUNCH_SITE":"TYURATAM MISSILE AND SPACE COMPLEX","OWNER":"SOCIÉTÉ EUROPÉENNE DES SATELLITES","ORBIT_TYPE":"Geosynchronous","OPERATIONAL_STATUS":"Operational","satInfo":{"lng":-89.91804355088385,"lat":1.71060690850105,"elevation":-6.894426153454513,"azimuth":44.91804355088385,"range":42477.408706784605,"height":35810.90108656975,"velocity":3.0734307441345945},"x":-259,"y":-2,"dx":0.004396264203709888,"dy":-3.0734275999041816,"maxAlt":256,"minAlt":256},{"OBJECT_ID":"2000-072A","OBJECT_NAME":"INTELSAT 1R (PAS 1R)","NORAD_CAT_ID":"26608","OBJECT_TYPE":"PAYLOAD","PERIOD":"1436.131","INCLINATION":"0.0525","APOGEE":"35791.972","PERIGEE":"35782.595","ECCENTRICITY":"0.0001112","MEAN_MOTION":"1.00269335","TLE_LINE1":"1 26608U 00072A   16238.09643770 -.00000308  00000-0  00000+0 0  9998","TLE_LINE2":"2 26608   0.0525 293.1629 0001112 275.7967 109.4630  1.00269335 57729","LAUNCH_DATE":"2000-11-16","LAUNCH_SITE":"FRENCH GUIANA","OWNER":"UNITED STATES OF AMERICA","ORBIT_TYPE":"Geosynchronous","OPERATIONAL_STATUS":"Operational","satInfo":{"lng":-52.330766923858356,"lat":0.5211088879674617,"elevation":-8.062607211182625,"azimuth":7.330766923858342,"range":42593.39011499879,"height":35795.977161122384,"velocity":3.074208582077132},"x":-206,"y":-159,"dx":1.8786552513741321,"dy":-2.43339533421947,"maxAlt":256,"minAlt":256},{"OBJECT_ID":"2000-081B","OBJECT_NAME":"AMC-8 (GE-8)","NORAD_CAT_ID":"26639","OBJECT_TYPE":"PAYLOAD","PERIOD":"1436.048","INCLINATION":"0.0661","APOGEE":"35795.848","PERIGEE":"35775.449","ECCENTRICITY":"0.0002419","MEAN_MOTION":"1.00275168","TLE_LINE1":"1 26639U 00081B   16239.27202251  .00000076  00000-0  00000+0 0  9999","TLE_LINE2":"2 26639   0.0661 287.8686 0002419 211.2755 154.7363  1.00275168 57354","LAUNCH_DATE":"2000-12-20","LAUNCH_SITE":"FRENCH GUIANA","OWNER":"SOCIÉTÉ EUROPÉENNE DES SATELLITES","ORBIT_TYPE":"Geosynchronous","OPERATIONAL_STATUS":"Operational","satInfo":{"lng":-121.02366777907623,"lat":2.136222397654689,"elevation":-6.483258899136688,"azimuth":76.0236677790762,"range":42398.279369160584,"height":35778.26858259131,"velocity":3.0747183401209908},"x":-222,"y":131,"dx":-1.5846855735924665,"dy":-2.6348936418619058,"maxAlt":256,"minAlt":256},{"OBJECT_ID":"2001-002A","OBJECT_NAME":"TURKSAT 2A","NORAD_CAT_ID":"26666","OBJECT_TYPE":"PAYLOAD","PERIOD":"1436.177","INCLINATION":"0.536","APOGEE":"35802.547","PERIGEE":"35773.782","ECCENTRICITY":"0.0003411","MEAN_MOTION":"1.00266192","TLE_LINE1":"1 26666U 01002A   16238.19527586  .00000000  00000-0  10000-3 0  9996","TLE_LINE2":"2 26666   0.5360  84.7113 0003411  53.4730 307.8437  1.00266192 57244","LAUNCH_DATE":"2001-01-10","LAUNCH_SITE":"FRENCH GUIANA","OWNER":"TURKEY","ORBIT_TYPE":"Geosynchronous","OPERATIONAL_STATUS":"Operational","satInfo":{"lng":97.952832241955,"lat":0.7400266062442793,"elevation":-7.854034554869188,"azimuth":217.04716775804496,"range":42541.805530895384,"height":35768.11307813855,"velocity":3.0755094478198077},"x":254,"y":34,"dx":-0.4255208221336528,"dy":3.0459301360273514,"maxAlt":256,"minAlt":256},{"OBJECT_ID":"2001-011A","OBJECT_NAME":"EUTE 28A (EB 1)","NORAD_CAT_ID":"26719","OBJECT_TYPE":"PAYLOAD","PERIOD":"1436.141","INCLINATION":"0.0695","APOGEE":"35799.570","PERIGEE":"35775.384","ECCENTRICITY":"0.0002868","MEAN_MOTION":"1.00268644","TLE_LINE1":"1 26719U 01011A   16238.08104793 +.00000130 +00000-0 +00000-0 0  9994","TLE_LINE2":"2 26719 000.0695 336.7071 0002868 195.5082 223.8190 01.00268644056656","LAUNCH_DATE":"2001-03-08","LAUNCH_SITE":"FRENCH GUIANA","OWNER":"EUROPEAN TELECOMMUNICATIONS SATELLITE ORGANIZATION (EUTELSAT)","ORBIT_TYPE":"Geosynchronous","OPERATIONAL_STATUS":"Operational","satInfo":{"lng":85.60410814559849,"lat":-0.963177069619433,"elevation":-9.52041197332891,"azimuth":229.3958918544015,"range":42712.51123719868,"height":35752.030453132655,"velocity":3.0763447667433947},"x":255,"y":-21,"dx":0.23579425420191294,"dy":3.0672949309700943,"maxAlt":256,"minAlt":256},{"OBJECT_ID":"2001-011D","OBJECT_NAME":"ARIANE 5 DEB (SYLDA)","NORAD_CAT_ID":"26722","OBJECT_TYPE":"DEBRIS","PERIOD":"646.152","INCLINATION":"1.7514","APOGEE":"35886.741","PERIGEE":"873.150","ECCENTRICITY":"0.7071144","MEAN_MOTION":"2.22857521","TLE_LINE1":"1 26722U 01011D   16238.61205559 -.00000162 +00000-0 +14600-2 0  9998","TLE_LINE2":"2 26722 001.7514 114.3557 7071144 185.9728 027.6840 02.22857521125985","LAUNCH_DATE":"2001-03-08","LAUNCH_SITE":"FRENCH GUIANA","OWNER":"FRANCE","ORBIT_TYPE":"Highly Elliptical Orbit","OPERATIONAL_STATUS":"N/A, space debris","satInfo":{"lng":50.64206226597484,"lat":5.298364549955762,"elevation":-5.612598687263455,"azimuth":264.35793773402514,"range":33462.46312602227,"height":27066.621347790773,"velocity":2.7810015800711443},"x":149,"y":-125,"dx":1.7636084695274694,"dy":2.1502685773105594,"maxAlt":257,"minAlt":5},{"OBJECT_ID":"2001-012A","OBJECT_NAME":"XM-2","NORAD_CAT_ID":"26724","OBJECT_TYPE":"PAYLOAD","PERIOD":"1453.309","INCLINATION":"1.5254","APOGEE":"36141.632","PERIGEE":"36104.036","ECCENTRICITY":"0.0004423","MEAN_MOTION":"0.99084223","TLE_LINE1":"1 26724U 01012A   16237.39650829 -.00000265  00000-0  00000+0 0  9999","TLE_LINE2":"2 26724   1.5254  79.8079 0004423 349.9609  10.5779  0.99084223 56527","LAUNCH_DATE":"2001-03-18","LAUNCH_SITE":"SEA LAUNCH","OWNER":"UNITED STATES OF AMERICA","ORBIT_TYPE":"Geosynchronous","OPERATIONAL_STATUS":"Nonoperational","satInfo":{"lng":71.15451396358813,"lat":2.318478964526177,"elevation":-6.232966318750981,"azimuth":243.84548603641187,"range":42728.690499261174,"height":36132.73416501334,"velocity":3.0618324868706046},"x":245,"y":-85,"dx":0.9890243135248887,"dy":2.8976972038004343,"maxAlt":259,"minAlt":259},{"OBJECT_ID":"2001-018A","OBJECT_NAME":"XM-1","NORAD_CAT_ID":"26761","OBJECT_TYPE":"PAYLOAD","PERIOD":"1454.468","INCLINATION":"0.4465","APOGEE":"36182.649","PERIGEE":"36108.224","ECCENTRICITY":"0.0008751","MEAN_MOTION":"0.99005233","TLE_LINE1":"1 26761U 01018A   16238.27202336  .00000032  00000-0  00000+0 0  9991","TLE_LINE2":"2 26761   0.4465  89.9757 0008751  92.1067 113.1748  0.99005233 56078","LAUNCH_DATE":"2001-05-08","LAUNCH_SITE":"SEA LAUNCH","OWNER":"UNITED STATES OF AMERICA","ORBIT_TYPE":"Geosynchronous","OPERATIONAL_STATUS":"Nonoperational","satInfo":{"lng":18.41069109831024,"lat":2.7560381107668115,"elevation":-5.805177209329993,"azimuth":296.5893089016898,"range":42668.03623649739,"height":36120.18680020511,"velocity":3.0634752776548164},"x":81,"y":-248,"dx":2.906677718561279,"dy":0.9675254090832193,"maxAlt":259,"minAlt":259}]